City,State,Zip_Code,Hospital_Id
Acton,MA,1720,1
Cambridge,MA,2141,2
Cambridge,MA,2139,3
Marlborough,MA,1752,4
cambridge,MA,2139,5
Cambridge,MA,2139,6
Burlington,MA,1803,7
Burlington,MA,1805,8
Cambridge,MA,2130,9
Burlington,MA,1805,10
Burlington,MA,1805,11
Cambridge,MA,2139,12
Burlington,MA,1805,13
Burlington,MA,1805,14
Burlington,MA,1805,15
Burlington,MA,1805,16
Cambridge,MA,2139,17
Cambridge,MA,2139,18
Burlington,VT,5401,19
Quincy,MA,2169,20
Cambridge,MA,2139,21
Cambridge,MA,2139,22
Burlington,MA,1805,23
Cambridge,MA,2459,24
Cambridge,MA,2141,25
Cambridge,MA,2140,26
Burlington,MA,1805,27
Burlington,MA,1805,28
Cambridge,MA,2138,29
Burlington,MA,1805,30
Acton,MA,1720,31
Cambridge,MA,2139,32
Cambridge,MA,2139,33
Cambridge,MA,2139,34
Cambridge,MA,2139,35
Burlington,MA,1805,36
Cambridge,MA,2139,37
Burlington,MA,1805,38
Cambridge,MA,2138,39
Burlington,MA,1805,40
Burlington,MA,2140,41
Cambridge,MA,2138,42
Cambridge,MA,2139,43
Northampton,MA,1060,44
Burlington,MA,1805,45
Cambridge,MA,2139,46
Cambridge,MA,2139,47
Cambridge,MA,2138,48
Burlington,MA,1803,49
Cambridge,MA,2139,50
Cambridge,MA,2139,51
Burlington,VT,5401,52
Burlington,MA,1805,53
Cambridge,MA,2138,54
Cambridge,MA,2139,55
Acton,MA,1720,56
Acton,AL,1720,57
Cambridge,MA,2138,58
Burlington,MA,1805,59
Cambridge,MA,2138,60
Cambridge,MA,2141,61
Cambridge,MA,2138,62
Burlington,VT,5401,63
Burlington,MA,1803,64
Cambridge,MA,2138,65
Cambridge,MA,2138,66
Burlington,MA,1805,67
Cambridge,MA,2138,68
Cambridge,MA,2139,69
Cambridge,MA,2139,70
Burlington,MA,1803,71
Burlington,VT,5405,72
Quincy,MA,2169,73
Quincy,MA,2169,74
Cambridge,MA,2139,75
Cambridge,MA,2139,76
Cambridge,MA,2142,77
Quincy,MA,2169,78
Burlington,MA,1805,79
Cambridge,MA,2138,80
Burlington,MA,1805,81
Cambridge,MA,2139,82
Burlington,MA,1805,83
Quincy,MA,2169,84
Burlington,MA,1805,85
Burlington,VT,5401,86
Cambridge,MA,2139,87
Northampton,MA,1060,88
Cambridge,MA,2138,89
Cambridge,MA,2139,90
Cambridge,MA,2238,91
Burlington,MA,1805,92
Cambridge,MA,2138,93
Cambridge,MA,2141,94
Cambridge,MA,2139,95
Cambridge,MA,2138,96
Cambridge,MA,2138,97
Cambridge,MA,2138,98
CLINTON,MD,2073,99
Acton,MA,1720,100
Burlington,MA,1805,101
Northampton,MA,1060,102
Burlington,MA,1805,103
Quincy,MA,2169,104
Cambridge,MA,2138,105
Cambridge,MA,2139,106
Cambridge,MA,2139,107
Acton,MA,1720,108
Cambridge,MA,2139,109
Cambridge,MA,2138,110
Burlington,MA,1805,111
Cambridge,MA,2142,112
Burlington,MA,1803,113
Acton,MA,1720,114
Cambridge,MA,2139,115
Cambridge,MA,2139,116
Cambridge,MA,2149,117
Cambridge,MA,2139,118
Cambridge,MA,2139,119
Cambridge,MA,2139,120
Cambridge,MA,2139,121
Cambridge,MA,2139,122
Burlington,MA,1805,123
Cambridge,MA,2138,124
Cambridge,MA,2138,125
Cambridge,MA,2139,126
Burlington,MA,1805,127
Cambridge,MA,2138,128
Burlington,MA,1803,129
Cambridge,MA,2139,130
Cambridge,MA,2139,131
Cambridge,MA,2138,132
Cambridge,MA,2139,133
Cambridge,MA,2142,134
Cambridge,MA,2138,135
Cambridge,MA,2138,136
Cambridge,MA,2139,137
Acton,MA,1720,138
Burlington,MA,1803,139
Burlington,VT,5477,140
Cambridge,MA,2139,141
Cambridge,MA,2139,142
Cambridge,MA,2139,143
Cambridge,MA,2139,144
Cambridge,MA,2138,145
Burlington,MA,1805,146
Cambridge,MA,2139,147
Cambridge,MA,2139,148
Cambridge,MA,2139,149
Cambridge,MA,2138,150
Clinton,MA,1510,151
Cambridge,MA,2139,152
Cambridge,MA,2138,153
Northampton,MA,1060,154
Cambridge,MA,2139,155
Burlington,MA,1803,156
Cambridge,MA,2138,157
Burlington,MA,1805,158
Burlington,MA,1805,159
Burlington,MA,1803,160
Cambridge,MA,2139,161
Cambridge,MA,2138,162
Burlington,MA,1805,163
Marlborough,MA,1752,164
Cambridge,MA,2139,165
cambridge,MA,2138,166
Cambridge,MA,2139,167
Cambridge,MA,2139,168
Cambridge,MA,2138,169
Burlington,MA,1805,170
Cambridge,MA,2139,171
Cambridge,MA,2138,172
Cambridge,MA,2138,173
Lincoln,MA,1773,174
Cambridge,MA,2141,175
Burlington,MA,1805,176
Burlington,MA,1805,177
Burlington,MA,1805,178
Cambridge,MA,2138,179
Cambridge,MA,2140,180
Northampton,MA,1060,181
Cambridge,MA,2139,182
Burlington,MA,1805,183
Burlington,MA,1805,184
burlington,MA,1805,185
Burlington,MA,1805,186
Cambridge,MA,2139,187
Cambridge,MA,2138,188
Burlington,MA,1805,189
Quincy,MA,2171,190
Cambridge,MA,2138,191
Cambridge,MA,2138,192
Burlington,MA,1805,193
Cambridge,MA,2139,194
Burlington,MA,1803,195
Burlington,MA,1805,196
Cambridge,MA,2139,197
Cambridge,MA,2139,198
Clinton,SC,2932,199
Quincy,MA,2169,200
Burlington,VT,5401,201
Burlington,MA,1805,202
Burlington,MA,1805,203
Cambridge,MA,2142,204
Cambridge,MA,2139,205
Burlington,MA,1803,206
Burlington,MA,1805,207
Quincy,MA,2169,208
Cambridge,MA,2138,209
Burlington,MA,1805,210
Quincy,MA,2169,211
Burlington,MA,1803,212
Cambridge,MA,2139,213
Cambridge,MA,2139,214
Cambridge,MA,2139,215
Burlington,MA,1805,216
Burlington,MA,1803,217
Quincy,MA,2169,218
Marlborough,MA,1752,219
Quincy,MA,2169,220
Burlington,MA,1805,221
Northampton,MA,1060,222
Burlington,VT,5401,223
Quincy,MA,2169,224
Burlington,MA,1805,225
Quincy,MA,2169,226
Cambridge,MA,2138,227
Cambridge,MA,2139,228
Cambridge,MA,2138,229
Northampton,MA,1060,230
Burlington,MA,1805,231
Cambridge,MA,2139,232
Quincy,MA,2169,233
Marlborough,MA,1752,234
Cambridge,MA,2142,235
Lincoln,RI,2865,236
Burlington,MA,1805,237
Burlington,MA,1805,238
Cambridge,MA,2139,239
Cambridge,MA,2138,240
Marlborough,MA,1752,241
Cambridge,MA,2139,242
Burlington,MA,1805,243
Cambridge,MA,2139,244
Burlington,MA,1805,245
Marlborough,MA,1752,246
Cambridge,MA,2138,247
Burlington,MA,1803,248
Burlington,MA,1805,249
Cambridge,MA,2139,250
Quincy,MA,2169,251
Burlington,VT,5405,252
Cambridge,MA,2139,253
Burlington,MA,1805,254
Cambridge,MA,2138,255
Cambridge,MA,2139,256
Cambridge,MA,2139,257
Burlington,MA,1805,258
Burlington,MA,1805,259
Cambridge,MA,2138,260
Cambridge,MA,2238,261
Cambridge,MA,2138,262
Quincy,MA,2169,263
Cambridge,MA,2138,264
Burlington,MA,1805,265
Cambridge,MA,2139,266
Burlington,MA,1805,267
Northampton,MA,1060,268
Cambridge,MA,2139,269
Cambridge,MA,2142,270
Burlington,MA,1805,271
Cambridge,MA,2138,272
Cambridge,MA,2138,273
Burlington,VT,5401,274
Burlington,MA,1805,275
Burlington,MA,1805,276
Burlington,MA,1805,277
Burlington,MA,1805,278
Burlington,MA,1805,279
Cambridge,MA,2141,280
Cambridge,MA,2238,281
Northampton,MA,1060,282
Cambridge,MA,2139,283
Burlington,MA,1805,284
NORTHAMPTON,MA,1060,285
Burlington,MA,1805,286
CAMBRIDGE,MA,2141,287
Burlington,MA,1805,288
Cambridge,MA,2141,289
Burlington,MA,1805,290
Burlington,MA,1805,291
Burlington,MA,1805,292
Cambridge,MA,2141,293
Cambridge,MA,2139,294
Cambridge,MA,2138,295
Cambridge,MA,2139,296
Burlington,MA,1805,297
Burlington,MA,1803,298
Burlington,MA,1805,299
Burlington,MA,1803,300
